$$SOE
2460728.500000000, A.D. 2025-Feb-22 00:00:00.0000, -2.902552618624468E+08, -2.685946800608720E+08, -5.113053849174818E+07,
2460735.500000000, A.D. 2025-Mar-01 00:00:00.0000, -2.834120581618675E+08, -2.770102364566829E+08, -5.332787421932402E+07,
2460742.500000000, A.D. 2025-Mar-08 00:00:00.0000, -2.763536756265976E+08, -2.852155569563851E+08, -5.548472559218793E+07,
2460749.500000000, A.D. 2025-Mar-15 00:00:00.0000, -2.690872214242101E+08, -2.932062187722316E+08, -5.759980722239238E+07,
2460756.500000000, A.D. 2025-Mar-22 00:00:00.0000, -2.616198476179301E+08, -3.009780372408302E+08, -5.967188728208672E+07,
2460763.500000000, A.D. 2025-Mar-29 00:00:00.0000, -2.539587437857895E+08, -3.085270638152383E+08, -6.169978698845240E+07,
2460770.500000000, A.D. 2025-Apr-05 00:00:00.0000, -2.461111283580011E+08, -3.158495829918535E+08, -6.368238011444430E+07,
2460777.500000000, A.D. 2025-Apr-12 00:00:00.0000, -2.380842405943940E+08, -3.229421080935530E+08, -6.561859234708233E+07,
2460784.500000000, A.D. 2025-Apr-19 00:00:00.0000, -2.298853333826366E+08, -3.298013768128552E+08, -6.750740055413541E+07,
2460791.500000000, A.D. 2025-Apr-26 00:00:00.0000, -2.215216665768776E+08, -3.364243467384721E+08, -6.934783200586386E+07,
2460798.500000000, A.D. 2025-May-03 00:00:00.0000, -2.130005007524225E+08, -3.428081908652911E+08, -7.113896356521429E+07,
2460805.500000000, A.D. 2025-May-10 00:00:00.0000, -2.043290913357048E+08, -3.489502930980426E+08, -7.287992085262658E+07,
2460812.500000000, A.D. 2025-May-17 00:00:00.0000, -1.955146830600453E+08, -3.548482438088819E+08, -7.456987739658794E+07,
2460819.500000000, A.D. 2025-May-24 00:00:00.0000, -1.865645045610089E+08, -3.604998355227087E+08, -7.620805379519267E+07,
2460826.500000000, A.D. 2025-May-31 00:00:00.0000, -1.774857626824108E+08, -3.659030584376428E+08, -7.779371690660521E+07,
2460833.500000000, A.D. 2025-Jun-07 00:00:00.0000, -1.682856368831516E+08, -3.710560945918860E+08, -7.932617893764934E+07,
2460840.500000000, A.D. 2025-Jun-14 00:00:00.0000, -1.589712760975788E+08, -3.759573113571196E+08, -8.080479627174759E+07,
2460847.500000000, A.D. 2025-Jun-21 00:00:00.0000, -1.495497968195175E+08, -3.806052575424428E+08, -8.222896841859505E+07,
2460854.500000000, A.D. 2025-Jun-28 00:00:00.0000, -1.400282792694198E+08, -3.849986603574129E+08, -8.359813723208734E+07,
2460861.500000000, A.D. 2025-Jul-05 00:00:00.0000, -1.304137631499586E+08, -3.891364210893038E+08, -8.491178608462361E+07,
2460868.500000000, A.D. 2025-Jul-12 00:00:00.0000, -1.207132441694744E+08, -3.930176103090526E+08, -8.616943895711443E+07,
2460875.500000000, A.D. 2025-Jul-19 00:00:00.0000, -1.109336711317480E+08, -3.966414631884276E+08, -8.737065951127572E+07,
2460882.500000000, A.D. 2025-Jul-26 00:00:00.0000, -1.010819433697756E+08, -4.000073749913310E+08, -8.851505016988064E+07,
2460889.500000000, A.D. 2025-Aug-02 00:00:00.0000, -9.116490844542006E+07, -4.031148967235038E+08, -8.960225121086699E+07,
2460896.500000000, A.D. 2025-Aug-09 00:00:00.0000, -8.118936007905400E+07, -4.059637309611415E+08, -9.063193988038039E+07,
2460903.500000000, A.D. 2025-Aug-16 00:00:00.0000, -7.116203622055957E+07, -4.085537279271439E+08, -9.160382953863460E+07,
2460910.500000000, A.D. 2025-Aug-23 00:00:00.0000, -6.108961695799456E+07, -4.108848818031356E+08, -9.251766886542845E+07,
2460917.500000000, A.D. 2025-Aug-30 00:00:00.0000, -5.097872192427778E+07, -4.129573265668977E+08, -9.337324109814414E+07,
2460924.500000000, A.D. 2025-Sep-06 00:00:00.0000, -4.083590860953146E+07, -4.147713303573827E+08, -9.417036309100431E+07,
2460931.500000000, A.D. 2025-Sep-13 00:00:00.0000, -3.066767323897272E+07, -4.163272908512540E+08, -9.490888424547228E+07,
2460938.500000000, A.D. 2025-Sep-20 00:00:00.0000, -2.048045093184420E+07, -4.176257332969608E+08, -9.558868574693459E+07,
2460945.500000000, A.D. 2025-Sep-27 00:00:00.0000, -1.028061407257731E+07, -4.186673080975565E+08, -9.620967995146638E+07,
2460952.500000000, A.D. 2025-Oct-04 00:00:00.0000, -7.447090173797510E+04, -4.194527874049896E+08, -9.677180969439080E+07,
2460959.500000000, A.D. 2025-Oct-11 00:00:00.0000, 1.013173530839822E+07, -4.199830616695876E+08, -9.727504756385159E+07,
2460966.500000000, A.D. 2025-Oct-18 00:00:00.0000, 2.033182678586129E+07, -4.202591364191190E+08, -9.771939518811902E+07,
2460973.500000000, A.D. 2025-Oct-25 00:00:00.0000, 3.051969164645283E+07, -4.202821292557104E+08, -9.810488254868647E+07,
2460980.500000000, A.D. 2025-Nov-01 00:00:00.0000, 4.068928418449545E+07, -4.200532670539191E+08, -9.843156732165647E+07,
2460987.500000000, A.D. 2025-Nov-08 00:00:00.0000, 5.083462510991797E+07, -4.195738833903196E+08, -9.869953425353152E+07,
2460994.500000000, A.D. 2025-Nov-15 00:00:00.0000, 6.094980188764475E+07, -4.188454162626768E+08, -9.890889459042978E+07,
2461001.500000000, A.D. 2025-Nov-22 00:00:00.0000, 7.102896958927827E+07, -4.178694058783754E+08, -9.905978558038813E+07,
2461008.500000000, A.D. 2025-Nov-29 00:00:00.0000, 8.106635211037582E+07, -4.166474913765359E+08, -9.915236994245076E+07,
2461015.500000000, A.D. 2025-Dec-06 00:00:00.0000, 9.105624148187795E+07, -4.151814066181210E+08, -9.918683510484082E+07,
2461022.500000000, A.D. 2025-Dec-13 00:00:00.0000, 1.009929957156504E+08, -4.134729784114966E+08, -9.916339252719969E+07,
2461029.500000000, A.D. 2025-Dec-20 00:00:00.0000, 1.108710386841294E+08, -4.115241261484683E+08, -9.908227734386957E+07,
2461036.500000000, A.D. 2025-Dec-27 00:00:00.0000, 1.206848609660729E+08, -4.093368602588646E+08, -9.894374801834688E+07,
2461043.500000000, A.D. 2026-Jan-03 00:00:00.0000, 1.304290202036314E+08, -4.069132800976132E+08, -9.874808592515166E+07,
2461050.500000000, A.D. 2026-Jan-10 00:00:00.0000, 1.400981410843806E+08, -4.042555719399327E+08, -9.849559492370531E+07,
2461057.500000000, A.D. 2026-Jan-17 00:00:00.0000, 1.496869151849954E+08, -4.013660071716061E+08, -9.818660095163788E+07,
2461064.500000000, A.D. 2026-Jan-24 00:00:00.0000, 1.591901007595057E+08, -3.982469406464477E+08, -9.782145164147331E+07,
2461071.500000000, A.D. 2026-Jan-31 00:00:00.0000, 1.686025225016867E+08, -3.949008092136114E+08, -9.740051596272179E+07,
2461078.500000000, A.D. 2026-Feb-07 00:00:00.0000, 1.779190713498287E+08, -3.913301304688610E+08, -9.692418389987968E+07,
2461085.500000000, A.D. 2026-Feb-14 00:00:00.0000, 1.871347045932558E+08, -3.875375017438594E+08, -9.639286619163729E+07,
2461092.500000000, A.D. 2026-Feb-21 00:00:00.0000, 1.962444466729980E+08, -3.835255987564652E+08, -9.580699412050523E+07,
2461099.500000000, A.D. 2026-Feb-28 00:00:00.0000, 2.052433895948523E+08, -3.792971727682627E+08, -9.516701915924115E+07,
2461106.500000000, A.D. 2026-Mar-07 00:00:00.0000, 2.141266908982227E+08, -3.748550481969415E+08, -9.447341244380473E+07,
2461113.500000000, A.D. 2026-Mar-14 00:00:00.0000, 2.228895719590153E+08, -3.702021230120525E+08, -9.372666451681551E+07,
2461120.500000000, A.D. 2026-Mar-21 00:00:00.0000, 2.315273184134702E+08, -3.653413690128689E+08, -9.292728526745376E+07,
2461127.500000000, A.D. 2026-Mar-28 00:00:00.0000, 2.400352806975177E+08, -3.602758309576703E+08, -9.207580379899962E+07,
2461134.500000000, A.D. 2026-Apr-04 00:00:00.0000, 2.484088741013718E+08, -3.550086255079841E+08, -9.117276824699201E+07,
2461141.500000000, A.D. 2026-Apr-11 00:00:00.0000, 2.566435786165592E+08, -3.495429403453993E+08, -9.021874560190147E+07,
2461148.500000000, A.D. 2026-Apr-18 00:00:00.0000, 2.647349387379304E+08, -3.438820334653565E+08, -8.921432155082862E+07,
2461155.500000000, A.D. 2026-Apr-25 00:00:00.0000, 2.726785632695720E+08, -3.380292326309184E+08, -8.816010034053992E+07,
2461162.500000000, A.D. 2026-May-02 00:00:00.0000, 2.804701251681352E+08, -3.319879350134767E+08, -8.705670466627431E+07,
2461169.500000000, A.D. 2026-May-09 00:00:00.0000, 2.881053615511919E+08, -3.257616070833768E+08, -8.590477560233094E+07,
2461176.500000000, A.D. 2026-May-16 00:00:00.0000, 2.955800742524570E+08, -3.193537846090266E+08, -8.470497259725460E+07,
2461183.500000000, A.D. 2026-May-23 00:00:00.0000, 3.028901309801275E+08, -3.127680717404136E+08, -8.345797345471731E+07,
2461190.500000000, A.D. 2026-May-30 00:00:00.0000, 3.100314650032165E+08, -3.060081388566749E+08, -8.216447408323945E+07,
2461197.500000000, A.D. 2026-Jun-06 00:00:00.0000, 3.170000730500917E+08, -2.990777224489297E+08, -8.082518825253171E+07,
2461204.500000000, A.D. 2026-Jun-13 00:00:00.0000, 3.237920150870548E+08, -2.919806268353859E+08, -7.944084767569658E+07,
2461211.500000000, A.D. 2026-Jun-20 00:00:00.0000, 3.304034154793186E+08, -2.847207247795029E+08, -7.801220213200544E+07,
2461218.500000000, A.D. 2026-Jun-27 00:00:00.0000, 3.368304638394392E+08, -2.773019573489610E+08, -7.654001950226220E+07,
2461225.500000000, A.D. 2026-Jul-04 00:00:00.0000, 3.430694155660467E+08, -2.697283337880719E+08, -7.502508577999920E+07,
2461232.500000000, A.D. 2026-Jul-11 00:00:00.0000, 3.491165923296601E+08, -2.620039315330570E+08, -7.346820509244344E+07,
2461239.500000000, A.D. 2026-Jul-18 00:00:00.0000, 3.549683826011830E+08, -2.541328963419903E+08, -7.187019973750961E+07,
2461246.500000000, A.D. 2026-Jul-25 00:00:00.0000, 3.606212422502307E+08, -2.461194425343313E+08, -7.023191023861937E+07,
2461253.500000000, A.D. 2026-Aug-01 00:00:00.0000, 3.660716952635214E+08, -2.379678533856524E+08, -6.855419542529270E+07,
2461260.500000000, A.D. 2026-Aug-08 00:00:00.0000, 3.713163347998637E+08, -2.296824817101047E+08, -6.683793256149545E+07,
2461267.500000000, A.D. 2026-Aug-15 00:00:00.0000, 3.763518249992543E+08, -2.212677501761697E+08, -6.508401752232438E+07,
2461274.500000000, A.D. 2026-Aug-22 00:00:00.0000, 3.811749027891238E+08, -2.127281501314718E+08, -6.329336484900300E+07,
2461281.500000000, A.D. 2026-Aug-29 00:00:00.0000, 3.857823774018852E+08, -2.040682403079359E+08, -6.146690758392181E+07,
2461288.500000000, A.D. 2026-Sep-05 00:00:00.0000, 3.901711297379659E+08, -1.952926482724390E+08, -5.960559731470586E+07,
$$EOE